[{"OBJECT_NAME":"STARLINK-5032","OBJECT_ID":"2022-119K","EPOCH":"2026-03-09T22:34:22.068480","MEAN_MOTION":15.08842187,"ECCENTRICITY":0.00014251,"INCLINATION":53.2174,"RA_OF_ASC_NODE":322.9141,"ARG_OF_PERICENTER":88.6552,"MEAN_ANOMALY":271.4604,"EPHEMERIS_TYPE":0,"CLASSIFICATION_TYPE":"U","NORAD_CAT_ID":53895,"ELEMENT_SET_NO":999,"REV_AT_EPOCH":19172,"BSTAR":9.9434378e-5,"MEAN_MOTION_DOT":1.295e-5,"MEAN_MOTION_DDOT":0},{"OBJECT_NAME":"OBJECT A","OBJECT_ID":"2025-292A","EPOCH":"2026-03-09T21:45:44.016480","MEAN_MOTION":15.05451809,"ECCENTRICITY":0.00146319,"INCLINATION":97.6364,"RA_OF_ASC_NODE":145.598,"ARG_OF_PERICENTER":341.1551,"MEAN_ANOMALY":18.9132,"EPHEMERIS_TYPE":0,"CLASSIFICATION_TYPE":"U","NORAD_CAT_ID":66993,"ELEMENT_SET_NO":999,"REV_AT_EPOCH":1350,"BSTAR":0.00038878249,"MEAN_MOTION_DOT":5.535e-5,"MEAN_MOTION_DDOT":0}]
